[{"OBJECT_NAME":"IRIDIUM 106","OBJECT_ID":"2017-003A","EPOCH":"2026-04-26T11:12:10.286208","MEAN_MOTION":14.34217102,"ECCENTRICITY":0.0002524,"INCLINATION":86.3928,"RA_OF_ASC_NODE":110.1827,"ARG_OF_PERICENTER":84.782,"MEAN_ANOMALY":275.3664,"EPHEMERIS_TYPE":0,"CLASSIFICATION_TYPE":"U","NORAD_CAT_ID":41917,"ELEMENT_SET_NO":999,"REV_AT_EPOCH":48579,"BSTAR":-1.3953e-5,"MEAN_MOTION_DOT":-1.9e-7,"MEAN_MOTION_DDOT":0},{"OBJECT_NAME":"IRIDIUM 103","OBJECT_ID":"2017-003B","EPOCH":"2026-04-26T10:53:54.167424","MEAN_MOTION":14.34217281,"ECCENTRICITY":0.0002212,"INCLINATION":86.3928,"RA_OF_ASC_NODE":110.0879,"ARG_OF_PERICENTER":97.0425,"MEAN_ANOMALY":263.1023,"EPHEMERIS_TYPE":0,"CLASSIFICATION_TYPE":"U","NORAD_CAT_ID":41918,"ELEMENT_SET_NO":999,"REV_AT_EPOCH":48581,"BSTAR":-8.8353e-6,"MEAN_MOTION_DOT":-5.0e-8,"MEAN_MOTION_DDOT":0},{"OBJECT_NAME":"IRIDIUM 109","OBJECT_ID":"2017-003C","EPOCH":"2026-04-26T11:03:02.173248","MEAN_MOTION":14.34217021,"ECCENTRICITY":0.0002173,"INCLINATION":86.3928,"RA_OF_ASC_NODE":110.1439,"ARG_OF_PERICENTER":90.503,"MEAN_ANOMALY":269.6414,"EPHEMERIS_TYPE":0,"CLASSIFICATION_TYPE":"U","NORAD_CAT_ID":41919,"ELEMENT_SET_NO":999,"REV_AT_EPOCH":48578,"BSTAR":-3.0078e-5,"MEAN_MOTION_DOT":-6.4e-7,"MEAN_MOTION_DDOT":0},{"OBJECT_NAME":"IRIDIUM 102","OBJECT_ID":"2017-003D","EPOCH":"2026-04-26T11:57:50.217696","MEAN_MOTION":14.3421748,"ECCENTRICITY":0.0002171,"INCLINATION":86.3927,"RA_OF_ASC_NODE":110.0528,"ARG_OF_PERICENTER":87.5383,"MEAN_ANOMALY":272.6062,"EPHEMERIS_TYPE":0,"CLASSIFICATION_TYPE":"U","NORAD_CAT_ID":41920,"ELEMENT_SET_NO":999,"REV_AT_EPOCH":48587,"BSTAR":-5.7993e-6,"MEAN_MOTION_DOT":4.0e-8,"MEAN_MOTION_DDOT":0},{"OBJECT_NAME":"IRIDIUM 105","OBJECT_ID":"2017-003E","EPOCH":"2026-04-26T09:19:24.767904","MEAN_MOTION":14.34397349,"ECCENTRICITY":0.000229,"INCLINATION":86.3943,"RA_OF_ASC_NODE":78.5249,"ARG_OF_PERICENTER":87.7944,"MEAN_ANOMALY":272.3514,"EPHEMERIS_TYPE":0,"CLASSIFICATION_TYPE":"U","NORAD_CAT_ID":41921,"ELEMENT_SET_NO":999,"REV_AT_EPOCH":48771,"BSTAR":1.4882e-5,"MEAN_MOTION_DOT":6.2e-7,"MEAN_MOTION_DDOT":0},{"OBJECT_NAME":"IRIDIUM 104","OBJECT_ID":"2017-003F","EPOCH":"2026-04-26T10:35:38.128128","MEAN_MOTION":14.34217151,"ECCENTRICITY":0.0001992,"INCLINATION":86.3929,"RA_OF_ASC_NODE":110.1184,"ARG_OF_PERICENTER":95.6084,"MEAN_ANOMALY":264.5339,"EPHEMERIS_TYPE":0,"CLASSIFICATION_TYPE":"U","NORAD_CAT_ID":41922,"ELEMENT_SET_NO":999,"REV_AT_EPOCH":48585,"BSTAR":-1.8745e-5,"MEAN_MOTION_DOT":-3.3e-7,"MEAN_MOTION_DDOT":0},{"OBJECT_NAME":"IRIDIUM 114","OBJECT_ID":"2017-003G","EPOCH":"2026-04-26T10:44:46.248000","MEAN_MOTION":14.34217362,"ECCENTRICITY":0.0002145,"INCLINATION":86.3928,"RA_OF_ASC_NODE":110.0991,"ARG_OF_PERICENTER":94.3703,"MEAN_ANOMALY":265.7738,"EPHEMERIS_TYPE":0,"CLASSIFICATION_TYPE":"U","NORAD_CAT_ID":41923,"ELEMENT_SET_NO":999,"REV_AT_EPOCH":48583,"BSTAR":-7.2407e-6,"MEAN_MOTION_DOT":0,"MEAN_MOTION_DDOT":0},{"OBJECT_NAME":"IRIDIUM 108","OBJECT_ID":"2017-003H","EPOCH":"2026-04-26T09:45:02.477952","MEAN_MOTION":14.34217612,"ECCENTRICITY":0.0002225,"INCLINATION":86.3937,"RA_OF_ASC_NODE":78.4096,"ARG_OF_PERICENTER":83.4608,"MEAN_ANOMALY":276.6841,"EPHEMERIS_TYPE":0,"CLASSIFICATION_TYPE":"U","NORAD_CAT_ID":41924,"ELEMENT_SET_NO":999,"REV_AT_EPOCH":48768,"BSTAR":7.1871e-6,"MEAN_MOTION_DOT":4.0e-7,"MEAN_MOTION_DDOT":0},{"OBJECT_NAME":"IRIDIUM 112","OBJECT_ID":"2017-003J","EPOCH":"2026-04-26T12:06:58.257216","MEAN_MOTION":14.34218082,"ECCENTRICITY":0.0002181,"INCLINATION":86.3919,"RA_OF_ASC_NODE":109.9196,"ARG_OF_PERICENTER":91.2864,"MEAN_ANOMALY":268.8582,"EPHEMERIS_TYPE":0,"CLASSIFICATION_TYPE":"U","NORAD_CAT_ID":41925,"ELEMENT_SET_NO":999,"REV_AT_EPOCH":48586,"BSTAR":6.3599e-5,"MEAN_MOTION_DOT":1.98e-6,"MEAN_MOTION_DDOT":0},{"OBJECT_NAME":"IRIDIUM 111","OBJECT_ID":"2017-003K","EPOCH":"2026-04-26T11:48:42.244704","MEAN_MOTION":14.34217488,"ECCENTRICITY":0.000221,"INCLINATION":86.3926,"RA_OF_ASC_NODE":109.9943,"ARG_OF_PERICENTER":91.0955,"MEAN_ANOMALY":269.0494,"EPHEMERIS_TYPE":0,"CLASSIFICATION_TYPE":"U","NORAD_CAT_ID":41926,"ELEMENT_SET_NO":999,"REV_AT_EPOCH":48584,"BSTAR":-2.9013e-6,"MEAN_MOTION_DOT":1.2e-7,"MEAN_MOTION_DDOT":0},{"OBJECT_NAME":"IRIDIUM 113","OBJECT_ID":"2017-039A","EPOCH":"2026-04-26T07:58:55.136640","MEAN_MOTION":14.34217594,"ECCENTRICITY":0.0001862,"INCLINATION":86.3986,"RA_OF_ASC_NODE":343.8602,"ARG_OF_PERICENTER":90.9488,"MEAN_ANOMALY":269.1921,"EPHEMERIS_TYPE":0,"CLASSIFICATION_TYPE":"U","NORAD_CAT_ID":42803,"ELEMENT_SET_NO":999,"REV_AT_EPOCH":46375,"BSTAR":-2.1216e-6,"MEAN_MOTION_DOT":1.4e-7,"MEAN_MOTION_DDOT":0},{"OBJECT_NAME":"IRIDIUM 123","OBJECT_ID":"2017-039B","EPOCH":"2026-04-26T10:39:06.916320","MEAN_MOTION":14.34217717,"ECCENTRICITY":0.0002368,"INCLINATION":86.4016,"RA_OF_ASC_NODE":15.2602,"ARG_OF_PERICENTER":87.139,"MEAN_ANOMALY":273.0077,"EPHEMERIS_TYPE":0,"CLASSIFICATION_TYPE":"U","NORAD_CAT_ID":42804,"ELEMENT_SET_NO":999,"REV_AT_EPOCH":46253,"BSTAR":5.5663e-5,"MEAN_MOTION_DOT":1.76e-6,"MEAN_MOTION_DDOT":0},{"OBJECT_NAME":"IRIDIUM 120","OBJECT_ID":"2017-039C","EPOCH":"2026-04-26T07:49:47.142048","MEAN_MOTION":14.34217853,"ECCENTRICITY":0.0002228,"INCLINATION":86.398,"RA_OF_ASC_NODE":343.6523,"ARG_OF_PERICENTER":82.8623,"MEAN_ANOMALY":277.2826,"EPHEMERIS_TYPE":0,"CLASSIFICATION_TYPE":"U","NORAD_CAT_ID":42805,"ELEMENT_SET_NO":999,"REV_AT_EPOCH":46374,"BSTAR":1.6426e-6,"MEAN_MOTION_DOT":2.4e-7,"MEAN_MOTION_DDOT":0},{"OBJECT_NAME":"IRIDIUM 115","OBJECT_ID":"2017-039D","EPOCH":"2026-04-26T07:52:56.791776","MEAN_MOTION":14.43280481,"ECCENTRICITY":0.0002532,"INCLINATION":86.4517,"RA_OF_ASC_NODE":343.7732,"ARG_OF_PERICENTER":87.2549,"MEAN_ANOMALY":272.8942,"EPHEMERIS_TYPE":0,"CLASSIFICATION_TYPE":"U","NORAD_CAT_ID":42806,"ELEMENT_SET_NO":999,"REV_AT_EPOCH":46678,"BSTAR":4.6794e-5,"MEAN_MOTION_DOT":1.78e-6,"MEAN_MOTION_DDOT":0},{"OBJECT_NAME":"IRIDIUM 118","OBJECT_ID":"2017-039E","EPOCH":"2026-04-26T11:24:46.993824","MEAN_MOTION":14.34216802,"ECCENTRICITY":0.0002044,"INCLINATION":86.4012,"RA_OF_ASC_NODE":15.2453,"ARG_OF_PERICENTER":85.35,"MEAN_ANOMALY":274.7929,"EPHEMERIS_TYPE":0,"CLASSIFICATION_TYPE":"U","NORAD_CAT_ID":42807,"ELEMENT_SET_NO":999,"REV_AT_EPOCH":46253,"BSTAR":-3.6527e-5,"MEAN_MOTION_DOT":-8.3e-7,"MEAN_MOTION_DDOT":0},{"OBJECT_NAME":"IRIDIUM 117","OBJECT_ID":"2017-039F","EPOCH":"2026-04-26T10:11:42.953280","MEAN_MOTION":14.34218504,"ECCENTRICITY":0.0002339,"INCLINATION":86.4014,"RA_OF_ASC_NODE":15.2247,"ARG_OF_PERICENTER":87.8963,"MEAN_ANOMALY":272.2501,"EPHEMERIS_TYPE":0,"CLASSIFICATION_TYPE":"U","NORAD_CAT_ID":42808,"ELEMENT_SET_NO":999,"REV_AT_EPOCH":46255,"BSTAR":7.0737e-5,"MEAN_MOTION_DOT":2.18e-6,"MEAN_MOTION_DDOT":0},{"OBJECT_NAME":"IRIDIUM 126","OBJECT_ID":"2017-039G","EPOCH":"2026-04-26T10:48:14.955840","MEAN_MOTION":14.34217643,"ECCENTRICITY":0.0002197,"INCLINATION":86.4015,"RA_OF_ASC_NODE":15.2642,"ARG_OF_PERICENTER":89.3904,"MEAN_ANOMALY":270.7544,"EPHEMERIS_TYPE":0,"CLASSIFICATION_TYPE":"U","NORAD_CAT_ID":42809,"ELEMENT_SET_NO":999,"REV_AT_EPOCH":46253,"BSTAR":-1.4698e-6,"MEAN_MOTION_DOT":1.6e-7,"MEAN_MOTION_DDOT":0}]
