IRIDIUM 106             
1 41917U 17003A   26116.46678572 -.00000019  00000+0 -13953-4 0  9990
2 41917  86.3928 110.1827 0002524  84.7820 275.3664 14.34217102485793
IRIDIUM 103             
1 41918U 17003B   26116.45409916 -.00000005  00000+0 -88353-5 0  9996
2 41918  86.3928 110.0879 0002212  97.0425 263.1023 14.34217281485817
IRIDIUM 109             
1 41919U 17003C   26116.46044182 -.00000064  00000+0 -30078-4 0  9993
2 41919  86.3928 110.1439 0002173  90.5030 269.6414 14.34217021485780
IRIDIUM 102             
1 41920U 17003D   26116.49849789  .00000004  00000+0 -57993-5 0  9993
2 41920  86.3927 110.0528 0002171  87.5383 272.6062 14.34217480485876
IRIDIUM 105             
1 41921U 17003E   26116.38848111  .00000062  00000+0  14882-4 0  9992
2 41921  86.3943  78.5249 0002290  87.7944 272.3514 14.34397349487717
IRIDIUM 104             
1 41922U 17003F   26116.44141352 -.00000033  00000+0 -18745-4 0  9995
2 41922  86.3929 110.1184 0001992  95.6084 264.5339 14.34217151485857
IRIDIUM 114             
1 41923U 17003G   26116.44775750  .00000000  00000+0 -72407-5 0  9990
2 41923  86.3928 110.0991 0002145  94.3703 265.7738 14.34217362485835
IRIDIUM 108             
1 41924U 17003H   26116.40627868  .00000040  00000+0  71871-5 0  9990
2 41924  86.3937  78.4096 0002225  83.4608 276.6841 14.34217612487680
IRIDIUM 112             
1 41925U 17003J   26116.50484094  .00000198  00000+0  63599-4 0  9995
2 41925  86.3919 109.9196 0002181  91.2864 268.8582 14.34218082485869
IRIDIUM 111             
1 41926U 17003K   26116.49215561  .00000012  00000+0 -29013-5 0  9995
2 41926  86.3926 109.9943 0002210  91.0955 269.0494 14.34217488485842
IRIDIUM 113             
1 42803U 17039A   26116.33258260  .00000014  00000+0 -21216-5 0  9994
2 42803  86.3986 343.8602 0001862  90.9488 269.1921 14.34217594463755
IRIDIUM 123             
1 42804U 17039B   26116.44383005  .00000176  00000+0  55663-4 0  9993
2 42804  86.4016  15.2602 0002368  87.1390 273.0077 14.34217717462531
IRIDIUM 120             
1 42805U 17039C   26116.32624007  .00000024  00000+0  16426-5 0  9998
2 42805  86.3980 343.6523 0002228  82.8623 277.2826 14.34217853463740
IRIDIUM 115             
1 42806U 17039D   26116.32843509  .00000178  00000+0  46794-4 0  9999
2 42806  86.4517 343.7732 0002532  87.2549 272.8942 14.43280481466789
IRIDIUM 118             
1 42807U 17039E   26116.47554391 -.00000083  00000+0 -36527-4 0  9994
2 42807  86.4012  15.2453 0002044  85.3500 274.7929 14.34216802462536
IRIDIUM 117             
1 42808U 17039F   26116.42480270  .00000218  00000+0  70737-4 0  9993
2 42808  86.4014  15.2247 0002339  87.8963 272.2501 14.34218504462559
IRIDIUM 126             
1 42809U 17039G   26116.45017310  .00000016  00000+0 -14698-5 0  9990
2 42809  86.4015  15.2642 0002197  89.3904 270.7544 14.34217643462535
